ONEWEB-0607             
1 54671U 22166AF  25272.12446487 -.00000037  00000+0 -12072-3 0  9990
2 54671  87.9178 296.0640 0001835  86.7306 273.4038 13.21826165137057
ONEWEB-0608             
1 54672U 22166AG  25272.58494926  .00000013  00000+0  11200-5 0  9998
2 54672  87.9177 295.9557 0002000  77.4541 282.6816 13.21825341137124
ONEWEB-0610             
1 54673U 22166AH  25272.56603080  .00000101  00000+0  21380-3 0  9996
2 54673  87.9180 295.9969 0002046  73.8353 286.3006 13.21825796137022
ONEWEB-0611             
1 54674U 22166AJ  25272.55971139  .00000066  00000+0  12926-3 0  9995
2 54674  87.9178 295.9942 0001812  98.5041 261.6299 13.21823866137014
ONEWEB-0612             
1 54675U 22166AK  25272.57234399  .00000095  00000+0  19859-3 0  9992
2 54675  87.9178 295.9696 0001879  86.5058 273.6291 13.21824920137005
ONEWEB-0615             
1 54676U 22166AL  25272.55340992  .00000090  00000+0  18580-3 0  9993
2 54676  87.9181 296.0000 0001853  91.7931 268.3415 13.21824275137014
ONEWEB-0655             
1 54677U 22166AM  25272.60230097  .00000815  00000+0  19408-2 0  9998
2 54677  87.9180 295.9941 0001472  95.2150 264.9152 13.21827747137012
ONEWEB-0659             
1 54678U 22166AN  25272.54395241  .00000041  00000+0  67179-4 0  9996
2 54678  87.9180 296.0072 0001984  95.3626 264.7734 13.21824663137093
